[{"OBJECT_NAME":"STARLINK-5443","OBJECT_ID":"2022-175Z","EPOCH":"2026-03-09T07:43:29.461728","MEAN_MOTION":15.08833791,"ECCENTRICITY":0.00014584,"INCLINATION":53.2191,"RA_OF_ASC_NODE":30.7895,"ARG_OF_PERICENTER":89.9978,"MEAN_ANOMALY":270.1181,"EPHEMERIS_TYPE":0,"CLASSIFICATION_TYPE":"U","NORAD_CAT_ID":54781,"ELEMENT_SET_NO":999,"REV_AT_EPOCH":18007,"BSTAR":4.6012191e-5,"MEAN_MOTION_DOT":4.44e-6,"MEAN_MOTION_DDOT":0},{"OBJECT_NAME":"JILIN-01 KUANFU 02B 1","OBJECT_ID":"2024-169A","EPOCH":"2026-03-09T22:23:47.298048","MEAN_MOTION":15.0926333,"ECCENTRICITY":0.00080135,"INCLINATION":97.5562,"RA_OF_ASC_NODE":159.9206,"ARG_OF_PERICENTER":20.9587,"MEAN_ANOMALY":339.1969,"EPHEMERIS_TYPE":0,"CLASSIFICATION_TYPE":"U","NORAD_CAT_ID":61189,"ELEMENT_SET_NO":999,"REV_AT_EPOCH":8085,"BSTAR":0.00041363535,"MEAN_MOTION_DOT":6.529e-5,"MEAN_MOTION_DDOT":0}]
